start=new Date('2022-02-05T00:00:00.000Z').valueOf();
sats=[{"CENTER_NAME":"EARTH","INCLINATION":"53.0540","REF_FRAME":"TEME","OBJECT_ID":"2020-025BL","COUNTRY_CODE":"US","TLE_LINE1":"1 45589U 20025BL  22035.55690916  .00007131  00000-0  49686-3 0  9991","PERIAPSIS":"546.092","PERIOD":"95.591","LAUNCH_DATE":"2020-04-22","SITE":"AFETR","APOAPSIS":"548.200","MEAN_MOTION":"15.06422062","FILE":"3291889","TLE_LINE2":"2 45589  53.0540 304.0448 0001522  73.5501 286.5655 15.06422062100303","REV_AT_EPOCH":"10030","RA_OF_ASC_NODE":"304.0448","DECAY_DATE":null,"MEAN_MOTION_DOT":"0.00007131","NORAD_CAT_ID":"45589","SEMIMAJOR_AXIS":"6925.281","MEAN_ELEMENT_THEORY":"SGP4","GP_ID":"195297936","MEAN_ANOMALY":"286.5655","OBJECT_TYPE":"PAYLOAD","CLASSIFICATION_TYPE":"U","EPOCH":"2022-02-04T13:21:56.951424","TIME_SYSTEM":"UTC","ARG_OF_PERICENTER":"73.5501","MEAN_MOTION_DDOT":"0.0000000000000","ECCENTRICITY":"0.00015220","EPHEMERIS_TYPE":"0","BSTAR":"0.00049686000000","ELEMENT_SET_NO":"999","RCS_SIZE":"LARGE","OBJECT_NAME":"STARLINK-1364"},{"RCS_SIZE":"LARGE","ELEMENT_SET_NO":"999","OBJECT_NAME":"STARLINK-1365","BSTAR":"0.00035677000000","EPHEMERIS_TYPE":"0","ECCENTRICITY":"0.00017760","MEAN_MOTION_DDOT":"0.0000000000000","TIME_SYSTEM":"UTC","ARG_OF_PERICENTER":"68.1997","CLASSIFICATION_TYPE":"U","OBJECT_TYPE":"PAYLOAD","EPOCH":"2022-02-04T02:35:45.002400","MEAN_ANOMALY":"291.9181","GP_ID":"195296692","MEAN_ELEMENT_THEORY":"SGP4","SEMIMAJOR_AXIS":"6925.329","NORAD_CAT_ID":"45590","MEAN_MOTION_DOT":"0.00005037","DECAY_DATE":null,"RA_OF_ASC_NODE":"336.0618","REV_AT_EPOCH":"9983","TLE_LINE2":"2 45590  53.0553 336.0618 0001776  68.1997 291.9181 15.06406452 99837","FILE":"3291889","MEAN_MOTION":"15.06406452","APOAPSIS":"548.424","SITE":"AFETR","LAUNCH_DATE":"2020-04-22","PERIOD":"95.592","PERIAPSIS":"545.964","TLE_LINE1":"1 45590U 20025BM  22035.10815975  .00005037  00000-0  35677-3 0  9996","COUNTRY_CODE":"US","OBJECT_ID":"2020-025BM","REF_FRAME":"TEME","INCLINATION":"53.0553","CENTER_NAME":"EARTH"},{"REF_FRAME":"TEME","OBJECT_ID":"2020-035B","COUNTRY_CODE":"US","CENTER_NAME":"EARTH","INCLINATION":"53.0547","PERIAPSIS":"546.041","PERIOD":"95.592","LAUNCH_DATE":"2020-06-04","TLE_LINE1":"1 45658U 20035B   22035.81216630  .00000691  00000-0  65274-4 0  9991","APOAPSIS":"548.384","MEAN_MOTION":"15.06400274","FILE":"3292027","REV_AT_EPOCH":"9316","TLE_LINE2":"2 45658  53.0547 292.8955 0001692  71.6373 288.4800 15.06400274 93167","RA_OF_ASC_NODE":"292.8955","SITE":"AFETR","MEAN_MOTION_DOT":"0.00000691","SEMIMAJOR_AXIS":"6925.348","NORAD_CAT_ID":"45658","GP_ID":"195306840","MEAN_ELEMENT_THEORY":"SGP4","DECAY_DATE":null,"OBJECT_TYPE":"PAYLOAD","CLASSIFICATION_TYPE":"U","EPOCH":"2022-02-04T19:29:31.168320","MEAN_ANOMALY":"288.4800","TIME_SYSTEM":"UTC","ARG_OF_PERICENTER":"71.6373","ECCENTRICITY":"0.00016920","MEAN_MOTION_DDOT":"0.0000000000000","OBJECT_NAME":"STARLINK-1441","RCS_SIZE":"LARGE","ELEMENT_SET_NO":"999","EPHEMERIS_TYPE":"0","BSTAR":"0.00006527400000"},{"TIME_SYSTEM":"UTC","ARG_OF_PERICENTER":"72.0670","OBJECT_TYPE":"PAYLOAD","CLASSIFICATION_TYPE":"U","EPOCH":"2022-02-04T10:00:15.763104","MEAN_ANOMALY":"288.0542","RCS_SIZE":"LARGE","ELEMENT_SET_NO":"999","OBJECT_NAME":"STARLINK-1442","EPHEMERIS_TYPE":"0","BSTAR":"-0.00012793000000","ECCENTRICITY":"0.00020520","MEAN_MOTION_DDOT":"0.0000000000000","PERIAPSIS":"545.833","LAUNCH_DATE":"2020-06-04","PERIOD":"95.593","TLE_LINE1":"1 45659U 20035C   22035.41684911 -.00002186  00000-0 -12793-3 0  9999","OBJECT_ID":"2020-035C","REF_FRAME":"TEME","COUNTRY_CODE":"US","INCLINATION":"53.0596","CENTER_NAME":"EARTH","NORAD_CAT_ID":"45659","SEMIMAJOR_AXIS":"6925.389","MEAN_MOTION_DOT":"-0.00002186","MEAN_ELEMENT_THEORY":"SGP4","GP_ID":"195297697","DECAY_DATE":null,"MEAN_MOTION":"15.06386836","FILE":"3291889","APOAPSIS":"548.675","RA_OF_ASC_NODE":"294.6637","REV_AT_EPOCH":"9350","TLE_LINE2":"2 45659  53.0596 294.6637 0002052  72.0670 288.0542 15.06386836 93509","SITE":"AFETR"},{"BSTAR":"0.00036672000000","EPHEMERIS_TYPE":"0","ELEMENT_SET_NO":"999","RCS_SIZE":"LARGE","OBJECT_NAME":"STARLINK-1443","MEAN_MOTION_DDOT":"0.0000000000000","ECCENTRICITY":"0.00017030","ARG_OF_PERICENTER":"62.4784","TIME_SYSTEM":"UTC","MEAN_ANOMALY":"297.6377","OBJECT_TYPE":"PAYLOAD","CLASSIFICATION_TYPE":"U","EPOCH":"2022-02-04T10:12:13.219200","DECAY_DATE":null,"GP_ID":"195297942","MEAN_ELEMENT_THEORY":"SGP4","SEMIMAJOR_AXIS":"6925.335","NORAD_CAT_ID":"45660","MEAN_MOTION_DOT":"0.00005186","SITE":"AFETR","RA_OF_ASC_NODE":"294.6427","TLE_LINE2":"2 45660  53.0537 294.6427 0001703  62.4784 297.6377 15.06404582 93516","REV_AT_EPOCH":"9351","FILE":"3291889","MEAN_MOTION":"15.06404582","APOAPSIS":"548.379","TLE_LINE1":"1 45660U 20035D   22035.42515300  .00005186  00000-0  36672-3 0  9990","LAUNCH_DATE":"2020-06-04","PERIOD":"95.592","PERIAPSIS":"546.020","INCLINATION":"53.0537","CENTER_NAME":"EARTH","COUNTRY_CODE":"US","OBJECT_ID":"2020-035D","REF_FRAME":"TEME"},{"DECAY_DATE":null,"MEAN_MOTION_DOT":"0.00000610","NORAD_CAT_ID":"45661","SEMIMAJOR_AXIS":"6925.348","MEAN_ELEMENT_THEORY":"SGP4","GP_ID":"195296698","SITE":"AFETR","APOAPSIS":"548.401","MEAN_MOTION":"15.06400231","FILE":"3291889","REV_AT_EPOCH":"9346","TLE_LINE2":"2 45661  53.0528 296.0363 0001715  64.0553 296.0613 15.06400231 93464","RA_OF_ASC_NODE":"296.0363","TLE_LINE1":"1 45661U 20035E   22035.11183934  .00000610  00000-0  59818-4 0  9996","PERIAPSIS":"546.025","PERIOD":"95.592","LAUNCH_DATE":"2020-06-04","CENTER_NAME":"EARTH","INCLINATION":"53.0528","REF_FRAME":"TEME","OBJECT_ID":"2020-035E","COUNTRY_CODE":"US","EPHEMERIS_TYPE":"0","BSTAR":"0.00005981800000","ELEMENT_SET_NO":"999","RCS_SIZE":"LARGE","OBJECT_NAME":"STARLINK-1444","MEAN_MOTION_DDOT":"0.0000000000000","ECCENTRICITY":"0.00017150","TIME_SYSTEM":"UTC","ARG_OF_PERICENTER":"64.0553","MEAN_ANOMALY":"296.0613","CLASSIFICATION_TYPE":"U","OBJECT_TYPE":"PAYLOAD","EPOCH":"2022-02-04T02:41:02.918976"},{"TIME_SYSTEM":"UTC","ARG_OF_PERICENTER":"67.0794","EPOCH":"2022-02-04T20:33:12.949632","OBJECT_TYPE":"PAYLOAD","CLASSIFICATION_TYPE":"U","MEAN_ANOMALY":"293.0381","RCS_SIZE":"LARGE","ELEMENT_SET_NO":"999","OBJECT_NAME":"STARLINK-1445","BSTAR":"0.00048163000000","EPHEMERIS_TYPE":"0","ECCENTRICITY":"0.00017610","MEAN_MOTION_DDOT":"0.0000000000000","LAUNCH_DATE":"2020-06-04","PERIOD":"95.591","PERIAPSIS":"545.936","TLE_LINE1":"1 45662U 20035F   22035.85639988  .00006903  00000-0  48163-3 0  9994","COUNTRY_CODE":"US","OBJECT_ID":"2020-035F","REF_FRAME":"TEME","INCLINATION":"53.0528","CENTER_NAME":"EARTH","GP_ID":"195306643","MEAN_ELEMENT_THEORY":"SGP4","SEMIMAJOR_AXIS":"6925.291","NORAD_CAT_ID":"45662","MEAN_MOTION_DOT":"0.00006903","DECAY_DATE":null,"RA_OF_ASC_NODE":"292.6954","REV_AT_EPOCH":"9321","TLE_LINE2":"2 45662  53.0528 292.6954 0001761  67.0794 293.0381 15.06418804 93211","MEAN_MOTION":"15.06418804","FILE":"3292027","APOAPSIS":"548.375","SITE":"AFETR"},{"RCS_SIZE":"LARGE","OBJECT_NAME":"STARLINK-1446","ELEMENT_SET_NO":"999","BSTAR":"0.00030749000000","EPHEMERIS_TYPE":"0","ECCENTRICITY":"0.00015800","MEAN_MOTION_DDOT":"0.0000000000000","ARG_OF_PERICENTER":"69.8266","TIME_SYSTEM":"UTC","CLASSIFICATION_TYPE":"U","OBJECT_TYPE":"PAYLOAD","EPOCH":"2022-02-04T12:40:50.202048","MEAN_ANOMALY":"290.2893","GP_ID":"195298197","MEAN_ELEMENT_THEORY":"SGP4","MEAN_MOTION_DOT":"0.00004303","SEMIMAJOR_AXIS":"6925.299","NORAD_CAT_ID":"45663","DECAY_DATE":null,"TLE_LINE2":"2 45663  53.0531 294.1699 0001580  69.8266 290.2893 15.06416308 93520","REV_AT_EPOCH":"9352","RA_OF_ASC_NODE":"294.1699","APOAPSIS":"548.258","FILE":"3291889","MEAN_MOTION":"15.06416308","SITE":"AFETR","PERIOD":"95.591","LAUNCH_DATE":"2020-06-04","PERIAPSIS":"546.069","TLE_LINE1":"1 45663U 20035G   22035.52835882  .00004303  00000-0  30749-3 0  9993","COUNTRY_CODE":"US","REF_FRAME":"TEME","OBJECT_ID":"2020-035G","CENTER_NAME":"EARTH","INCLINATION":"53.0531"},{"MEAN_ANOMALY":"294.1386","OBJECT_TYPE":"PAYLOAD","CLASSIFICATION_TYPE":"U","EPOCH":"2022-02-04T18:15:12.600000","TIME_SYSTEM":"UTC","ARG_OF_PERICENTER":"65.9762","MEAN_MOTION_DDOT":"0.0000000000000","ECCENTRICITY":"0.00015220","BSTAR":"0.00002701700000","EPHEMERIS_TYPE":"0","ELEMENT_SET_NO":"999","RCS_SIZE":"LARGE","OBJECT_NAME":"STARLINK-1448","CENTER_NAME":"EARTH","INCLINATION":"53.0531","COUNTRY_CODE":"US","REF_FRAME":"TEME","OBJECT_ID":"2020-035J","TLE_LINE1":"1 45665U 20035J   22035.76056250  .00000121  00000-0  27017-4 0  9994","PERIOD":"95.592","LAUNCH_DATE":"2020-06-04","PERIAPSIS":"546.169","SITE":"AFETR","REV_AT_EPOCH":"9315","TLE_LINE2":"2 45665  53.0531 293.1212 0001522  65.9762 294.1386 15.06396972 93159","RA_OF_ASC_NODE":"293.1212","APOAPSIS":"548.277","FILE":"3292028","MEAN_MOTION":"15.06396972","DECAY_DATE":null,"MEAN_ELEMENT_THEORY":"SGP4","GP_ID":"195306853","MEAN_MOTION_DOT":"0.00000121","NORAD_CAT_ID":"45665","SEMIMAJOR_AXIS":"6925.358"},{"TIME_SYSTEM":"UTC","ARG_OF_PERICENTER":"58.2630","CLASSIFICATION_TYPE":"U","OBJECT_TYPE":"PAYLOAD","EPOCH":"2022-02-04T10:26:46.204800","MEAN_ANOMALY":"301.8524","RCS_SIZE":"LARGE","ELEMENT_SET_NO":"999","OBJECT_NAME":"STARLINK-1449","EPHEMERIS_TYPE":"0","BSTAR":"0.00023259000000","ECCENTRICITY":"0.00016910","MEAN_MOTION_DDOT":"0.0000000000000","PERIAPSIS":"546.010","LAUNCH_DATE":"2020-06-04","PERIOD":"95.591","TLE_LINE1":"1 45666U 20035K   22035.43525700  .00003185  00000-0  23259-3 0  9996","OBJECT_ID":"2020-035K","REF_FRAME":"TEME","COUNTRY_CODE":"US","INCLINATION":"53.0558","CENTER_NAME":"EARTH","SEMIMAJOR_AXIS":"6925.316","NORAD_CAT_ID":"45666","MEAN_MOTION_DOT":"0.00003185","MEAN_ELEMENT_THEORY":"SGP4","GP_ID":"195297198","DECAY_DATE":null,"FILE":"3291889","MEAN_MOTION":"15.06410635","APOAPSIS":"548.352","RA_OF_ASC_NODE":"294.5939","TLE_LINE2":"2 45666  53.0558 294.5939 0001691  58.2630 301.8524 15.06410635 93508","REV_AT_EPOCH":"9350","SITE":"AFETR"}];
